[{"OBJECT_NAME":"STARLINK-5577","OBJECT_ID":"2023-028L","EPOCH":"2026-03-09T20:40:34.584096","MEAN_MOTION":14.98327635,"ECCENTRICITY":0.00021565,"INCLINATION":69.9992,"RA_OF_ASC_NODE":244.1117,"ARG_OF_PERICENTER":271.7261,"MEAN_ANOMALY":88.3651,"EPHEMERIS_TYPE":0,"CLASSIFICATION_TYPE":"U","NORAD_CAT_ID":55751,"ELEMENT_SET_NO":999,"REV_AT_EPOCH":16606,"BSTAR":4.8001568e-5,"MEAN_MOTION_DOT":4.8e-6,"MEAN_MOTION_DDOT":0},{"OBJECT_NAME":"SHIYAN-24C 01","OBJECT_ID":"2023-206A","EPOCH":"2026-03-09T21:26:37.340736","MEAN_MOTION":14.97903598,"ECCENTRICITY":0.0003675,"INCLINATION":97.3976,"RA_OF_ASC_NODE":41.7846,"ARG_OF_PERICENTER":132.3262,"MEAN_ANOMALY":227.8273,"EPHEMERIS_TYPE":0,"CLASSIFICATION_TYPE":"U","NORAD_CAT_ID":58650,"ELEMENT_SET_NO":999,"REV_AT_EPOCH":12044,"BSTAR":0.00018089,"MEAN_MOTION_DOT":2.076e-5,"MEAN_MOTION_DDOT":0}]
